NORAD_CAT_ID,OBJECT_NAME,OBJECT_TYPE,EPOCH,MEAN_MOTION,ECCENTRICITY,INCLINATION,RA_OF_ASC_NODE,ARG_OF_PERICENTER,MEAN_ANOMALY,BSTAR,MEAN_MOTION_DOT,MEAN_MOTION_DDOT,TLE_LINE0,TLE_LINE1,TLE_LINE2,SEMIMAJOR_AXIS,PERIOD,APOGEE,PERIGEE,DECAYED
55284.0,STARLINK-5337,PAYLOAD,2024-04-26 15:02:11,14.98333353,0.0002897,69.9996,324.006,271.0585,89.0242,0.00019036,2.179e-05,0.0,0 STARLINK-5337,1 55284U 23010R   24117.62652213  .00002179  00000-0  19036-3 0  9993,2 55284  69.9996 324.0060 0002897 271.0585  89.0242 14.98333353 70614,6950.183,96.107,574.061,570.034,0.0
55284.0,STARLINK-5337,PAYLOAD,2024-04-26 21:26:43,14.98339535,0.0002876,69.9988,323.3349,261.2756,98.8078,0.00018597,2.127e-05,0.0,0 STARLINK-5337,1 55284U 23010R   24117.89355867  .00002127  00000-0  18597-3 0  9991,2 55284  69.9988 323.3349 0002876 261.2756  98.8078 14.98339535 70652,6950.163,96.106,574.027,570.03,0.0
55284.0,STARLINK-5337,PAYLOAD,2024-04-27 00:38:59,14.98342971,0.0003009,69.9998,322.9975,267.0801,93.0013,0.00026255,3.042e-05,0.0,0 STARLINK-5337,1 55284U 23010R   24118.02707722  .00003042  00000-0  26255-3 0  9995,2 55284  69.9998 322.9975 0003009 267.0801  93.0013 14.98342971 70370,6950.153,96.106,574.109,569.926,0.0
55284.0,STARLINK-5337,PAYLOAD,2024-04-27 07:03:32,14.98333922,0.0002879,70.0006,322.3232,275.5632,84.5199,0.00022621,2.607e-05,0.0,0 STARLINK-5337,1 55284U 23010R   24118.29412227  .00002607  00000-0  22621-3 0  9996,2 55284  70.0006 322.3232 0002879 275.5632  84.5199 14.98333922 70414,6950.181,96.107,574.047,570.045,0.0
55284.0,STARLINK-5337,PAYLOAD,2024-04-27 19:52:37,14.98326066,0.0003002,69.9985,320.9766,270.7894,89.2921,4.5642e-05,4.52e-06,0.0,0 STARLINK-5337,1 55284U 23010R   24118.82820861  .00000452  00000-0  45642-4 0  9997,2 55284  69.9985 320.9766 0003002 270.7894  89.2921 14.98326066 70493,6950.205,96.107,574.157,569.984,0.0
55284.0,STARLINK-5337,PAYLOAD,2024-04-27 21:28:45,14.98327028,0.0003119,69.9983,320.809,271.3817,88.6985,2.748e-05,2.35e-06,0.0,0 STARLINK-5337,1 55284U 23010R   24118.89496851  .00000235  00000-0  27480-4 0  9991,2 55284  69.9983 320.8090 0003119 271.3817  88.6985 14.98327028 70808,6950.202,96.107,574.235,569.899,0.0
55284.0,STARLINK-5337,PAYLOAD,2024-04-28 13:30:05,14.98330566,0.0003002,69.9982,319.126,270.9981,89.0834,4.8808e-05,4.89e-06,0.0,0 STARLINK-5337,1 55284U 23010R   24119.56256549  .00000489  00000-0  48808-4 0  9992,2 55284  69.9982 319.1260 0003002 270.9981  89.0834 14.98330566 70905,6950.191,96.107,574.143,569.97,0.0
55284.0,STARLINK-5337,PAYLOAD,2024-04-28 21:30:45,14.9833503,0.0002992,69.9983,318.2835,269.2302,90.8515,6.7976e-05,7.18e-06,0.0,0 STARLINK-5337,1 55284U 23010R   24119.89636229  .00000718  00000-0  67976-4 0  9997,2 55284  69.9983 318.2835 0002992 269.2302  90.8515 14.98335030 70658,6950.177,96.107,574.122,569.963,0.0
55284.0,STARLINK-5337,PAYLOAD,2024-04-29 13:32:06,14.98326403,0.0003069,69.9983,316.6001,272.2468,87.834,0.00021128,2.429e-05,0.0,0 STARLINK-5337,1 55284U 23010R   24120.56396485  .00002429  00000-0  21128-3 0  9999,2 55284  69.9983 316.6001 0003069 272.2468  87.8340 14.98326403 71059,6950.204,96.107,574.202,569.936,0.0
55284.0,STARLINK-5337,PAYLOAD,2024-04-29 21:32:46,14.98332915,0.0003068,69.9999,315.7583,272.4591,87.6216,0.00020635,2.37e-05,0.0,0 STARLINK-5337,1 55284U 23010R   24120.89776279  .00002370  00000-0  20635-3 0  9995,2 55284  69.9999 315.7583 0003068 272.4591  87.6216 14.98332915 70806,6950.184,96.107,574.181,569.917,0.0
55284.0,STARLINK-5337,PAYLOAD,2024-04-30 15:10:15,14.98334874,0.000303,69.9986,313.9066,271.914,88.1672,0.00014702,1.662e-05,0.0,0 STARLINK-5337,1 55284U 23010R   24121.63212234  .00001662  00000-0  14702-3 0  9995,2 55284  69.9986 313.9066 0003030 271.9140  88.1672 14.98334874 71215,6950.178,96.107,574.149,569.937,0.0
55284.0,STARLINK-5337,PAYLOAD,2024-04-30 21:34:47,14.98335788,0.0003039,69.9986,313.2333,271.8594,88.2217,0.00012751,1.429e-05,0.0,0 STARLINK-5337,1 55284U 23010R   24121.89916084  .00001429  00000-0  12751-3 0  9990,2 55284  69.9986 313.2333 0003039 271.8594  88.2217 14.98335788 71251,6950.175,96.107,574.152,569.928,0.0
55284.0,STARLINK-5337,PAYLOAD,2024-04-30 23:10:55,14.98336075,0.000304,69.9986,313.0649,271.9066,88.1745,0.00012556,1.406e-05,0.0,0 STARLINK-5337,1 55284U 23010R   24121.96592035  .00001406  00000-0  12556-3 0  9992,2 55284  69.9986 313.0649 0003040 271.9066  88.1745 14.98336075 70968,6950.174,96.107,574.152,569.926,0.0
55284.0,STARLINK-5337,PAYLOAD,2024-05-01 12:00:00,14.98316498,0.0003116,69.9985,311.7184,268.3606,91.7196,0.00047693,5.6e-05,0.0,0 STARLINK-5337,1 55284U 23010R   24122.50000456  .00005600  00000-0  47693-3 0  9994,2 55284  69.9985 311.7184 0003116 268.3606  91.7196 14.98316498 71047,6950.235,96.108,574.265,569.934,0.0
55284.0,STARLINK-5337,PAYLOAD,2024-05-01 18:24:32,14.98330633,0.0003085,69.9985,311.045,270.1004,89.9801,0.00020891,2.401e-05,0.0,0 STARLINK-5337,1 55284U 23010R   24122.76704007  .00002401  00000-0  20891-3 0  9992,2 55284  69.9985 311.0450 0003085 270.1004  89.9801 14.98330633 71087,6950.191,96.107,574.2,569.912,0.0
55284.0,STARLINK-5337,PAYLOAD,2024-05-02 15:14:17,14.98330159,0.0002989,69.9985,308.8563,268.6297,91.4519,3.8376e-05,3.65e-06,0.0,0 STARLINK-5337,1 55284U 23010R   24123.63492043  .00000365  00000-0  38376-4 0  9998,2 55284  69.9985 308.8563 0002989 268.6297  91.4519 14.98330159 71519,6950.192,96.107,574.135,569.98,0.0
55284.0,STARLINK-5337,PAYLOAD,2024-05-02 21:38:49,14.98331558,0.0002986,69.9983,308.1831,267.8669,92.2148,4.1083e-05,3.97e-06,0.0,0 STARLINK-5337,1 55284U 23010R   24123.90195863  .00000397  00000-0  41083-4 0  9992,2 55284  69.9983 308.1831 0002986 267.8669  92.2148 14.98331558 71251,6950.188,96.107,574.128,569.978,0.0
55284.0,STARLINK-5337,PAYLOAD,2024-05-03 15:16:18,14.98328502,0.0003075,69.9975,306.3307,269.3749,90.7057,1.3779e-05,7.1e-07,0.0,0 STARLINK-5337,1 55284U 23010R   24124.63632043  .00000071  00000-0  13779-4 0  9999,2 55284  69.9975 306.3307 0003075 269.3749  90.7057 14.98328502 71668,6950.198,96.107,574.2,569.925,0.0
55284.0,STARLINK-5337,PAYLOAD,2024-05-03 21:40:50,14.9833,0.0003124,69.9978,305.6573,269.3412,90.7389,1.8705e-05,1.3e-06,0.0,0 STARLINK-5337,1 55284U 23010R   24124.90335938  .00000130  00000-0  18705-4 0  9992,2 55284  69.9978 305.6573 0003124 269.3412  90.7389 14.98330000 71709,6950.193,96.107,574.229,569.887,0.0
55284.0,STARLINK-5337,PAYLOAD,2024-05-04 21:42:50,14.98334669,0.0003165,69.9978,303.1323,270.1288,89.9508,9.652e-05,1.059e-05,0.0,0 STARLINK-5337,1 55284U 23010R   24125.90475485  .00001059  00000-0  96520-4 0  9997,2 55284  69.9978 303.1323 0003165 270.1288  89.9508 14.98334669 71552,6950.178,96.107,574.243,569.844,0.0
55284.0,STARLINK-5337,PAYLOAD,2024-05-05 13:44:11,14.98331101,0.0003137,69.9981,301.4488,270.0888,89.9912,0.00011714,1.305e-05,0.0,0 STARLINK-5337,1 55284U 23010R   24126.57235688  .00001305  00000-0  11714-3 0  9995,2 55284  69.9981 301.4488 0003137 270.0888  89.9912 14.98331101 71954,6950.189,96.107,574.235,569.874,0.0
55284.0,STARLINK-5337,PAYLOAD,2024-05-05 20:08:43,14.98333789,0.0003144,69.9982,300.7754,270.1419,89.938,0.00012322,1.378e-05,0.0,0 STARLINK-5337,1 55284U 23010R   24126.83939465  .00001378  00000-0  12322-3 0  9994,2 55284  69.9982 300.7754 0003144 270.1419  89.9380 14.98333789 71999,6950.181,96.107,574.231,569.861,0.0
55284.0,STARLINK-5337,PAYLOAD,2024-05-06 12:10:04,14.98335684,0.0003106,69.9984,299.092,270.3258,89.7545,7.9225e-05,8.53e-06,0.0,0 STARLINK-5337,1 55284U 23010R   24127.50699382  .00000853  00000-0  79225-4 0  9993,2 55284  69.9984 299.0920 0003106 270.3258  89.7545 14.98335684 71792,6950.175,96.107,574.199,569.882,0.0
55284.0,STARLINK-5337,PAYLOAD,2024-05-06 21:46:52,14.98338092,0.0003081,69.9991,298.0827,271.4647,88.6159,0.00013632,1.534e-05,0.0,0 STARLINK-5337,1 55284U 23010R   24127.90754924  .00001534  00000-0  13632-3 0  9997,2 55284  69.9991 298.0827 0003081 271.4647  88.6159 14.98338092 72157,6950.168,96.106,574.174,569.892,0.0
55284.0,STARLINK-5337,PAYLOAD,2024-05-07 04:11:23,14.98377725,0.0002968,70.0003,297.4095,272.7273,87.3546,-0.00083319,-0.00010033,0.0,0 STARLINK-5337,1 55284U 23010R   24128.17457908 -.00010033  00000-0 -83319-3 0  9994,2 55284  70.0003 297.4095 0002968 272.7273  87.3546 14.98377725 71898,6950.045,96.104,573.973,569.848,0.0
55284.0,STARLINK-5337,PAYLOAD,2024-05-07 13:48:13,14.98327047,0.0002742,70.0001,296.4007,263.0154,97.0693,-2.8948e-05,-4.38e-06,0.0,0 STARLINK-5337,1 55284U 23010R   24128.57515995 -.00000438  00000-0 -28948-4 0  9995,2 55284  70.0001 296.4007 0002742 263.0154  97.0693 14.98327047 71959,6950.202,96.107,573.973,570.161,0.0
55284.0,STARLINK-5337,PAYLOAD,2024-05-07 20:12:46,14.98319959,0.0002567,69.9997,295.7265,261.6279,98.4589,3.5122e-05,3.26e-06,0.0,0 STARLINK-5337,1 55284U 23010R   24128.84220307  .00000326  00000-0  35122-4 0  9991,2 55284  69.9997 295.7265 0002567 261.6279  98.4589 14.98319959 72295,6950.224,96.108,573.873,570.305,0.0
55284.0,STARLINK-5337,PAYLOAD,2024-05-08 13:50:14,14.98331582,0.000283,69.9996,293.8747,268.1339,91.9496,1.6556e-05,1.05e-06,0.0,0 STARLINK-5337,1 55284U 23010R   24129.57655722  .00000105  00000-0  16556-4 0  9990,2 55284  69.9996 293.8747 0002830 268.1339  91.9496 14.98331582 72404,6950.188,96.107,574.02,570.086,0.0
55284.0,STARLINK-5337,PAYLOAD,2024-05-08 18:38:38,14.98331479,0.0002848,69.9996,293.3696,268.6241,91.4592,1.4356e-05,7.8e-07,0.0,0 STARLINK-5337,1 55284U 23010R   24129.77683729  .00000078  00000-0  14356-4 0  9995,2 55284  69.9996 293.3696 0002848 268.6241  91.4592 14.98331479 72135,6950.188,96.107,574.033,570.074,0.0
55284.0,STARLINK-5337,PAYLOAD,2024-05-09 13:52:15,14.98327946,0.0002995,69.9991,291.3491,269.3355,90.7461,0.0001663,1.892e-05,0.0,0 STARLINK-5337,1 55284U 23010R   24130.57795714  .00001892  00000-0  16630-3 0  9994,2 55284  69.9991 291.3491 0002995 269.3355  90.7461 14.98327946 72555,6950.199,96.107,574.146,569.983,0.0
